      2.10          N: GNSS NAV DATA                        RINEX VERSION / TYPE
fic2rin                                 02/28/2022 00:17:31 PGM / RUN BY / DATE
                                                            END OF HEADER
27 22  2 27  2  0  0.0 1.354059204459e-04 1.455191522837e-11 0.000000000000e+00
    3.100000000000e+01 1.345312500000e+02 4.135172246522e-09-1.597696423475e+00
    6.796792149544e-06 1.030645519495e-02 7.513910531998e-06 5.153654005051e+03
    7.200000000000e+03 1.341104507446e-07 3.063135407565e+00-1.359730958939e-07
    9.736162642826e-01 2.391250000000e+02 6.432970891173e-01-7.831040479983e-09
    2.539391490134e-10 1.000000000000e+00 2.199000000000e+03 0.000000000000e+00
    2.400000000000e+00 0.000000000000e+00 1.396983861923e-09 3.100000000000e+01
    0.000000000000e+00 4.000000000000e+00
24 22  2 27  2  0  0.0 2.721012569964e-04-2.614797267597e-12 0.000000000000e+00
    2.000000000000e+01 1.631250000000e+01 5.313078453901e-09 2.760904792024e+00
    7.543712854385e-07 1.236446783878e-02 5.720183253288e-06 5.153686384201e+03
    7.200000000000e+03-1.862645149231e-08 8.923210990869e-01-1.452863216400e-07
    9.343312084737e-01 2.546250000000e+02 8.097660907851e-01-8.207841889560e-09
    1.282196265764e-10 1.000000000000e+00 2.199000000000e+03 0.000000000000e+00
    2.400000000000e+00 0.000000000000e+00 2.328306436539e-09 2.000000000000e+01
    0.000000000000e+00 4.000000000000e+00
16 22  2 27  2  0  0.0-4.744888283312e-04-4.661160346586e-12 0.000000000000e+00
    8.000000000000e+01 3.775000000000e+01 4.236962200768e-09-7.055182470954e-01
    2.199783921242e-06 1.278244948480e-02 9.864568710327e-06 5.153609951019e+03
    7.200000000000e+03 1.080334186554e-07 2.107058517250e+00 1.490116119385e-07
    9.699514964988e-01 1.924062500000e+02 7.107812177707e-01-7.897828976278e-09
   -4.668051585943e-10 1.000000000000e+00 2.199000000000e+03 0.000000000000e+00
    2.400000000000e+00 0.000000000000e+00-1.024454832077e-08 8.000000000000e+01
    0.000000000000e+00 4.000000000000e+00
15 22  2 27  2  0  0.0-8.075498044491e-05 2.842170943040e-12 0.000000000000e+00
    6.600000000000e+01-2.987500000000e+01 4.860559604675e-09-2.554564835856e+00
   -1.603737473488e-06 1.392781210598e-02 1.096539199352e-05 5.153747520447e+03
    7.200000000000e+03 6.519258022308e-08-2.026411770013e-01-8.195638656616e-08
    9.304363631749e-01 1.492812500000e+02 1.077413227843e+00-7.834254899591e-09
    4.789485215569e-10 1.000000000000e+00 2.199000000000e+03 0.000000000000e+00
    2.400000000000e+00 0.000000000000e+00-1.071020960808e-08 6.600000000000e+01
    0.000000000000e+00 4.000000000000e+00
32 22  2 27  2  0  0.0-7.500918582082e-05-7.048583938740e-12 0.000000000000e+00
    7.400000000000e+01-2.593750000000e+01 4.476257882680e-09-9.736069206248e-01
   -1.378357410431e-06 5.684477277100e-03 1.061335206032e-05 5.153568498611e+03
    7.200000000000e+03 1.247972249985e-07-8.508405572673e-02 1.713633537292e-07
    9.584432700264e-01 1.749375000000e+02-2.334461856118e+00-7.869613515277e-09
    3.953736117551e-10 1.000000000000e+00 2.199000000000e+03 0.000000000000e+00
    2.400000000000e+00 0.000000000000e+00 4.656612873077e-10 7.400000000000e+01
    0.000000000000e+00 4.000000000000e+00
30 22  2 27  2  0  0.0-5.157813429832e-04-2.273736754432e-12 0.000000000000e+00
    6.900000000000e+01 1.575000000000e+01 5.460941755858e-09 1.840380205006e+00
    8.568167686462e-07 5.548138869926e-03 5.662441253662e-06 5.153565036774e+03
    7.200000000000e+03-9.313225746155e-08 9.882417219487e-01 8.195638656616e-08
    9.359419573507e-01 2.586250000000e+02-2.740573604211e+00-8.472495770600e-09
    3.500145795122e-11 1.000000000000e+00 2.199000000000e+03 0.000000000000e+00
    2.400000000000e+00 0.000000000000e+00 3.725290298462e-09 6.900000000000e+01
    0.000000000000e+00 4.000000000000e+00
21 22  2 27  2  0  0.0 1.586740836501e-04 5.684341886081e-13 0.000000000000e+00
    1.090000000000e+02 2.506250000000e+01 4.952349142363e-09-1.455682359173e+00
    1.570209860802e-06 2.458101091906e-02 1.810491085052e-06 5.153575988770e+03
    7.200000000000e+03-6.239861249924e-07-2.251062905006e+00 1.080334186554e-07
    9.594591276553e-01 3.531562500000e+02-9.971338588333e-01-8.772508267324e-09
    2.042942239602e-10 1.000000000000e+00 2.199000000000e+03 0.000000000000e+00
    3.400000000000e+00 0.000000000000e+00-1.024454832077e-08 1.090000000000e+02
    0.000000000000e+00 4.000000000000e+00
13 22  2 27  2  0  0.0 2.682954072952e-04 6.252776074689e-12 0.000000000000e+00
    7.700000000000e+01-1.750000000000e+00 4.150172871358e-09-2.116598268951e+00
   -7.450580596924e-08 5.803370382637e-03 1.038238406181e-05 5.153673208237e+03
    7.200000000000e+03 3.725290298462e-09 5.662706457311e-02-1.043081283569e-07
    9.690235456174e-01 1.842187500000e+02 9.538060186720e-01-7.607459738377e-09
    4.714482091388e-10 1.000000000000e+00 2.199000000000e+03 0.000000000000e+00
    2.400000000000e+00 0.000000000000e+00-1.117587089539e-08 7.700000000000e+01
    0.000000000000e+00 4.000000000000e+00
22 22  2 27  2  0  0.0 2.196449786425e-04 5.798028723802e-12 0.000000000000e+00
    5.800000000000e+01-1.403125000000e+01 4.339823628217e-09-1.766506610479e+00
   -7.040798664093e-07 1.297207432799e-02 1.016445457935e-05 5.153656877518e+03
    7.200000000000e+03 3.594905138016e-07 4.994377453011e-03 1.136213541031e-07
    9.617348912957e-01 1.831250000000e+02-1.870934921206e+00-7.608888369313e-09
    4.510902182897e-10 1.000000000000e+00 2.199000000000e+03 0.000000000000e+00
    2.400000000000e+00 0.000000000000e+00-9.778887033463e-09 5.800000000000e+01
    0.000000000000e+00 4.000000000000e+00
19 22  2 27  2  0  0.0 1.242277212441e-04 5.002220859751e-12 0.000000000000e+00
    5.700000000000e+01 1.061875000000e+02 4.104099523647e-09 7.640099441266e-01
    5.470588803291e-06 9.001732338220e-03 7.487833499908e-06 5.153691656113e+03
    7.200000000000e+03-9.685754776001e-08-3.112692067639e+00-1.341104507446e-07
    9.788078050568e-01 2.465625000000e+02 2.011564738774e+00-7.994261564511e-09
    1.700070814773e-10 1.000000000000e+00 2.199000000000e+03 0.000000000000e+00
    2.400000000000e+00 0.000000000000e+00-1.583248376846e-08 5.700000000000e+01
    0.000000000000e+00 4.000000000000e+00
17 22  2 27  2  0  0.0 5.804197862744e-04 5.002220859751e-12 0.000000000000e+00
    8.400000000000e+01 1.185000000000e+02 3.976594212539e-09-1.654079109046e+00
    6.489455699921e-06 1.356640795711e-02 7.810071110725e-06 5.153771501541e+03
    7.200000000000e+03 1.862645149231e-09 3.125651121172e+00 3.520399332047e-07
    9.800468279128e-01 2.413437500000e+02-1.495197170655e+00-7.764251983689e-09
    1.442917246152e-10 1.000000000000e+00 2.199000000000e+03 0.000000000000e+00
    2.400000000000e+00 0.000000000000e+00-1.117587089539e-08 8.400000000000e+01
    0.000000000000e+00 4.000000000000e+00
25 22  2 27  2  0  0.0 2.911752089858e-04 5.343281372916e-12 0.000000000000e+00
    5.500000000000e+01 2.893750000000e+01 4.604120351522e-09 8.864111221698e-01
    1.374632120132e-06 1.053045887966e-02 9.136274456978e-06 5.153704458237e+03
    7.200000000000e+03-7.636845111847e-08 2.011561441357e+00 5.401670932770e-08
    9.573935751024e-01 2.025312500000e+02 9.831956756921e-01-8.088908364073e-09
   -5.453798601174e-10 1.000000000000e+00 2.199000000000e+03 0.000000000000e+00
    2.400000000000e+00 0.000000000000e+00 5.587935447693e-09 5.500000000000e+01
    0.000000000000e+00 4.000000000000e+00
14 22  2 27  2  0  0.0-8.847052231431e-05-4.206412995700e-12 0.000000000000e+00
    4.400000000000e+01 1.371875000000e+01 4.659122642588e-09 1.204946436616e+00
    7.078051567078e-07 1.473584561609e-03 9.560957551003e-06 5.153649869919e+03
    7.200000000000e+03-3.166496753693e-08 2.056959472984e+00 7.823109626770e-08
    9.533904753287e-01 1.919375000000e+02 3.026583628397e+00-7.976046520067e-09
   -4.671623163285e-10 1.000000000000e+00 2.199000000000e+03 0.000000000000e+00
    2.400000000000e+00 0.000000000000e+00-7.450580596924e-09 3.000000000000e+02
    0.000000000000e+00 4.000000000000e+00
23 22  2 27  2  0  0.0-2.316664904356e-06-3.410605131648e-12 0.000000000000e+00
    1.540000000000e+02-1.388750000000e+02 4.263034715364e-09 1.731106892465e+00
   -7.081776857376e-06 1.999263651669e-03 7.681548595428e-06 5.153711158752e+03
    7.200000000000e+03 2.793967723846e-08-1.152162845510e+00 3.166496753693e-08
    9.674486908984e-01 2.342187500000e+02 2.982448036555e+00-8.024262814183e-09
   -2.417957860507e-10 1.000000000000e+00 2.199000000000e+03 0.000000000000e+00
    2.400000000000e+00 0.000000000000e+00-8.381903171539e-09 9.220000000000e+02
    0.000000000000e+00 4.000000000000e+00
18 22  2 27  2  0  0.0 2.314606681466e-04-8.412825991400e-12 0.000000000000e+00
    1.170000000000e+02-9.343750000000e+00 4.650550856967e-09 2.684497445328e+00
   -4.116445779800e-07 2.114235656336e-03 8.437782526016e-07 5.153618606567e+03
    7.200000000000e+03-1.229345798492e-07-2.152195432630e+00 9.313225746155e-09
    9.706542486970e-01 3.705937500000e+02 3.095216108243e+00-8.417850637268e-09
    5.535944880039e-11 1.000000000000e+00 2.199000000000e+03 0.000000000000e+00
    2.400000000000e+00 0.000000000000e+00-8.381903171539e-09 6.290000000000e+02
    0.000000000000e+00 4.000000000000e+00
28 22  2 27  2  0  0.0 3.917380236089e-04-8.185452315956e-12 0.000000000000e+00
    7.800000000000e+01 2.700000000000e+01 4.309465220810e-09-1.157853064336e+00
    1.521781086922e-06 1.678415399510e-02 1.033395528793e-05 5.153697185516e+03
    7.200000000000e+03-3.408640623093e-07 2.110519357180e+00 1.415610313416e-07
    9.691018585480e-01 1.918437500000e+02-1.286077636490e+00-8.026405760589e-09
   -3.557291032593e-10 1.000000000000e+00 2.199000000000e+03 0.000000000000e+00
    4.850000000000e+00 6.300000000000e+01-1.117587089539e-08 7.800000000000e+01
    0.000000000000e+00 4.000000000000e+00
